{
  "type": "FeatureCollection",
  "features": [
    {
      "type": "Feature",
      "properties": {
        "norad_id": 31655,
        "name": "FENGYUN 1C DEB",
        "group": "fengyun-1c-debris",
        "lat": 21.979095428782585,
        "lon": -74.05549290173487,
        "alt_km": 1134.9940047081009,
        "timestamp": "2025-12-09T16:56:36.858437+00:00",
        "meta_object_name": "FENGYUN 1C DEB",
        "meta_object_id": "1999-025CBM",
        "meta_epoch": "2025-12-08T02:11:00.557952",
        "meta_mean_motion": 13.63822611,
        "meta_eccentricity": 0.02885921,
        "meta_inclination": 99.2861,
        "meta_ra_of_asc_node": 288.1866,
        "meta_arg_of_pericenter": 150.074,
        "meta_mean_anomaly": 229.9547,
        "meta_ephemeris_type": 0,
        "meta_classification_type": "U",
        "meta_norad_cat_id": 31655,
        "meta_element_set_no": 999,
        "meta_rev_at_epoch": 59656,
        "meta_bstar": 0.0034168292,
        "meta_mean_motion_dot": 3.556e-05,
        "meta_mean_motion_ddot": 0,
        "tle_line1": "1 31655U 99025CBM 25342.09097868  .00003556  00000+0  34168-2 0  9990",
        "tle_line2": "2 31655  99.2861 288.1866 0288592 150.0740 229.9547 13.63822611596569"
      },
      "geometry": {
        "type": "Point",
        "coordinates": [
          -74.05549290173487,
          21.979095428782585
        ]
      }
    },
    {
      "type": "Feature",
      "properties": {
        "norad_id": 31656,
        "name": "FENGYUN 1C DEB",
        "group": "fengyun-1c-debris",
        "lat": -35.717633630717295,
        "lon": -21.08016075081445,
        "alt_km": 743.8136620750174,
        "timestamp": "2025-12-09T16:56:36.858448+00:00",
        "meta_object_name": "FENGYUN 1C DEB",
        "meta_object_id": "1999-025CBN",
        "meta_epoch": "2025-12-07T22:06:00.092160",
        "meta_mean_motion": 14.46894273,
        "meta_eccentricity": 0.00228069,
        "meta_inclination": 99.1931,
        "meta_ra_of_asc_node": 330.2965,
        "meta_arg_of_pericenter": 65.9258,
        "meta_mean_anomaly": 324.8359,
        "meta_ephemeris_type": 0,
        "meta_classification_type": "U",
        "meta_norad_cat_id": 31656,
        "meta_element_set_no": 999,
        "meta_rev_at_epoch": 96386,
        "meta_bstar": 0.002990493,
        "meta_mean_motion_dot": 0.00010853,
        "meta_mean_motion_ddot": 0,
        "tle_line1": "1 31656U 99025CBN 25341.92083440  .00010853  00000+0  29905-2 0  9994",
        "tle_line2": "2 31656  99.1931 330.2965 0022806  65.9258 324.8359 14.46894273963860"
      },
      "geometry": {
        "type": "Point",
        "coordinates": [
          -21.08016075081445,
          -35.717633630717295
        ]
      }
    },
    {
      "type": "Feature",
      "properties": {
        "norad_id": 31657,
        "name": "FENGYUN 1C DEB",
        "group": "fengyun-1c-debris",
        "lat": -2.580913440329981,
        "lon": -112.32380630973466,
        "alt_km": 858.8891481215242,
        "timestamp": "2025-12-09T16:56:36.858458+00:00",
        "meta_object_name": "FENGYUN 1C DEB",
        "meta_object_id": "1999-025CBP",
        "meta_epoch": "2025-12-08T23:46:04.581120",
        "meta_mean_motion": 13.96979692,
        "meta_eccentricity": 0.0146321,
        "meta_inclination": 102.2162,
        "meta_ra_of_asc_node": 246.1689,
        "meta_arg_of_pericenter": 62.9314,
        "meta_mean_anomaly": 298.6682,
        "meta_ephemeris_type": 0,
        "meta_classification_type": "U",
        "meta_norad_cat_id": 31657,
        "meta_element_set_no": 999,
        "meta_rev_at_epoch": 62812,
        "meta_bstar": 0.0038883,
        "meta_mean_motion_dot": 5.871e-05,
        "meta_mean_motion_ddot": 0,
        "tle_line1": "1 31657U 99025CBP 25342.99033080  .00005871  00000+0  38883-2 0  9997",
        "tle_line2": "2 31657 102.2162 246.1689 0146321  62.9314 298.6682 13.96979692628127"
      },
      "geometry": {
        "type": "Point",
        "coordinates": [
          -112.32380630973466,
          -2.580913440329981
        ]
      }
    },
    {
      "type": "Feature",
      "properties": {
        "norad_id": 31658,
        "name": "FENGYUN 1C DEB",
        "group": "fengyun-1c-debris",
        "lat": -80.92604282659566,
        "lon": -103.01481062583741,
        "alt_km": 817.5367983828246,
        "timestamp": "2025-12-09T16:56:36.858468+00:00",
        "meta_object_name": "FENGYUN 1C DEB",
        "meta_object_id": "1999-025CBQ",
        "meta_epoch": "2025-11-30T13:35:01.131648",
        "meta_mean_motion": 13.98632883,
        "meta_eccentricity": 0.0215722,
        "meta_inclination": 98.1534,
        "meta_ra_of_asc_node": 184.9954,
        "meta_arg_of_pericenter": 356.7033,
        "meta_mean_anomaly": 3.2699,
        "meta_ephemeris_type": 0,
        "meta_classification_type": "U",
        "meta_norad_cat_id": 31658,
        "meta_element_set_no": 999,
        "meta_rev_at_epoch": 69646,
        "meta_bstar": 0.0024889,
        "meta_mean_motion_dot": 4.324e-05,
        "meta_mean_motion_ddot": 0,
        "tle_line1": "1 31658U 99025CBQ 25334.56598532  .00004324  00000+0  24889-2 0  9993",
        "tle_line2": "2 31658  98.1534 184.9954 0215722 356.7033   3.2699 13.98632883696462"
      },
      "geometry": {
        "type": "Point",
        "coordinates": [
          -103.01481062583741,
          -80.92604282659566
        ]
      }
    },
    {
      "type": "Feature",
      "properties": {
        "norad_id": 31660,
        "name": "FENGYUN 1C DEB",
        "group": "fengyun-1c-debris",
        "lat": -21.915965598740325,
        "lon": 161.68199221827317,
        "alt_km": 735.6112381187231,
        "timestamp": "2025-12-09T16:56:36.858479+00:00",
        "meta_object_name": "FENGYUN 1C DEB",
        "meta_object_id": "1999-025CBS",
        "meta_epoch": "2025-12-04T06:25:52.832640",
        "meta_mean_motion": 14.27084649,
        "meta_eccentricity": 0.0101329,
        "meta_inclination": 98.5047,
        "meta_ra_of_asc_node": 339.8449,
        "meta_arg_of_pericenter": 205.5295,
        "meta_mean_anomaly": 154.0863,
        "meta_ephemeris_type": 0,
        "meta_classification_type": "U",
        "meta_norad_cat_id": 31660,
        "meta_element_set_no": 999,
        "meta_rev_at_epoch": 7795,
        "meta_bstar": 0.0012372,
        "meta_mean_motion_dot": 3.142e-05,
        "meta_mean_motion_ddot": 0,
        "tle_line1": "1 31660U 99025CBS 25338.26797260  .00003142  00000+0  12372-2 0  9997",
        "tle_line2": "2 31660  98.5047 339.8449 0101329 205.5295 154.0863 14.27084649 77955"
      },
      "geometry": {
        "type": "Point",
        "coordinates": [
          161.68199221827317,
          -21.915965598740325
        ]
      }
    },
    {
      "type": "Feature",
      "properties": {
        "norad_id": 31661,
        "name": "FENGYUN 1C DEB",
        "group": "fengyun-1c-debris",
        "lat": -74.28450518801645,
        "lon": 96.42285052207195,
        "alt_km": 787.7502333864622,
        "timestamp": "2025-12-09T16:56:36.858490+00:00",
        "meta_object_name": "FENGYUN 1C DEB",
        "meta_object_id": "1999-025CBT",
        "meta_epoch": "2025-12-09T03:57:48.331008",
        "meta_mean_motion": 14.25387631,
        "meta_eccentricity": 0.00583195,
        "meta_inclination": 98.8601,
        "meta_ra_of_asc_node": 62.2108,
        "meta_arg_of_pericenter": 233.9483,
        "meta_mean_anomaly": 154.8919,
        "meta_ephemeris_type": 0,
        "meta_classification_type": "U",
        "meta_norad_cat_id": 31661,
        "meta_element_set_no": 999,
        "meta_rev_at_epoch": 95662,
        "meta_bstar": 0.002231569,
        "meta_mean_motion_dot": 5.314e-05,
        "meta_mean_motion_ddot": 0,
        "tle_line1": "1 31661U 99025CBT 25343.16514272  .00005314  00000+0  22316-2 0  9995",
        "tle_line2": "2 31661  98.8601  62.2108 0058319 233.9483 154.8919 14.25387631956623"
      },
      "geometry": {
        "type": "Point",
        "coordinates": [
          96.42285052207195,
          -74.28450518801645
        ]
      }
    },
    {
      "type": "Feature",
      "properties": {
        "norad_id": 31663,
        "name": "FENGYUN 1C DEB",
        "group": "fengyun-1c-debris",
        "lat": -74.45104764590523,
        "lon": -74.71324678772787,
        "alt_km": 539.0888259232006,
        "timestamp": "2025-12-09T16:56:36.858500+00:00",
        "meta_object_name": "FENGYUN 1C DEB",
        "meta_object_id": "1999-025CBV",
        "meta_epoch": "2025-12-03T11:38:28.212864",
        "meta_mean_motion": 14.76310711,
        "meta_eccentricity": 0.01897685,
        "meta_inclination": 98.838,
        "meta_ra_of_asc_node": 244.4812,
        "meta_arg_of_pericenter": 266.7407,
        "meta_mean_anomaly": 91.2075,
        "meta_ephemeris_type": 0,
        "meta_classification_type": "U",
        "meta_norad_cat_id": 31663,
        "meta_element_set_no": 999,
        "meta_rev_at_epoch": 99143,
        "meta_bstar": 0.0005527041,
        "meta_mean_motion_dot": 5.081e-05,
        "meta_mean_motion_ddot": 0,
        "tle_line1": "1 31663U 99025CBV 25337.48504876  .00005081  00000+0  55270-3 0  9991",
        "tle_line2": "2 31663  98.8380 244.4812 0189768 266.7407  91.2075 14.76310711991434"
      },
      "geometry": {
        "type": "Point",
        "coordinates": [
          -74.71324678772787,
          -74.45104764590523
        ]
      }
    }
  ]
}